LEMUR-2-VALHALLA        
1 58900U 24022B   26187.56870147  .00013592  00000+0  33871-3 0  9998
2 58900  97.4092  37.7991 0010098  52.3792 307.8369 15.40297609135252
LEMUR-2-CAEL            
1 58903U 24022E   26187.56189802  .00014888  00000+0  35485-3 0  9994
2 58903  97.4076  38.7626 0008065  38.7751 321.4074 15.41646096135329
LEMUR-2-JOHNNYTRUONG    
1 59146U 24043BA  26187.37894101  .00043037  00000+0  49242-3 0  9995
2 59146  97.5393 340.2928 0004447 119.3476 240.8226 15.62025124131031
LEMUR-2-TOMATOKECHUP    
1 60471U 24149D   26187.71347409  .00008991  00000+0  25500-3 0  9998
2 60471  97.3789 269.8148 0002908 137.9028 222.2440 15.36460405105163
LEMUR-2-STELLA          
1 60533U 24149BT  26187.67071274  .00008588  00000+0  50034-3 0  9998
2 60533  97.6726 270.2156 0001180 108.9246 251.2112 15.12250312103447
LEMUR-2-MARHISYAM       
1 60536U 24149BW  26187.19494461  .00010677  00000+0  63118-3 0  9994
2 60536  97.6870 270.2058 0002871  83.2434 276.9123 15.11655906103356
LEMUR-2-AHMED-ASRAR     
1 60576U 24149DN  26187.47501075  .00009441  00000+0  53572-3 0  9999
2 60576  97.6996 272.6559 0000480 267.0246  93.0930 15.13174842103483
LEMUR-2-LLOYD           
1 60577U 24149DP  26187.73105913  .00007068  00000+0  44313-3 0  9996
2 60577  97.6735 268.8748 0004987  92.1025 268.0775 15.09641264103348
LEMUR-2-SQUIRRELCOMM    
1 60578U 24149DQ  26187.70688676  .00005761  00000+0  38480-3 0  9992
2 60578  97.6704 268.5586 0004878 358.1093   2.0115 15.07387058103341
LEMUR-2-SIERRINI        
1 60579U 24149DR  26187.22222315  .00011635  00000+0  69227-3 0  9994
2 60579  97.6837 269.9031 0006600 113.2698 246.9227 15.11385219103339
LEMUR-2-WILSON          
1 62694U 25009CP  26187.70312089  .00002892  00000+0  26793-3 0  9997
2 62694  97.7020 265.8257 0002622   7.2206 352.9052 14.95256068 80277
LEMUR-2-STAR-FOX        
1 62696U 25009CR  26187.60415116  .00005629  00000+0  42526-3 0  9996
2 62696  97.6928 269.0749 0003481  70.9430 289.2172 15.02774699 80478
LEMUR-2-ARIANNA         
1 62699U 25009CU  26187.20310691  .00007087  00000+0  53415-3 0  9996
2 62699  97.6866 268.4362 0003872  76.7600 283.4057 15.02770802 80417
LEMUR-2-ALISIA          
1 62706U 25009DB  26187.70996690  .00007259  00000+0  54254-3 0  9992
2 62706  97.6950 269.7475 0003374 156.8621 203.2757 15.03086294103092
LEMUR-2-ROUNDTRIPPER    
1 62711U 25009DG  26187.72109382  .00007246  00000+0  52678-3 0  9998
2 62711  97.7223 270.3746 0004479  83.6436 276.5299 15.04132357 80562
LEMUR-2-MYNAMEISJEFF    
1 62712U 25009DH  26187.71953348  .00007329  00000+0  53289-3 0  9998
2 62712  97.7274 270.7657 0003591 117.5070 242.6521 15.04124598 80569
